{
  "type": "FeatureCollection",
  "features": [
    {
      "type": "Feature",
      "properties": {
        "norad_id": 33924,
        "name": "COSMOS 2251 DEB",
        "group": "cosmos-2251-debris",
        "lat": 44.489937237610576,
        "lon": 57.46152609491197,
        "alt_km": 1336.4236032726867,
        "timestamp": "2025-12-22T20:43:46.241209+00:00",
        "meta_object_name": "COSMOS 2251 DEB",
        "meta_object_id": "1993-036ED",
        "meta_epoch": "2025-12-22T04:02:16.914048",
        "meta_mean_motion": 13.50236718,
        "meta_eccentricity": 0.04038609,
        "meta_inclination": 73.9133,
        "meta_ra_of_asc_node": 255.046,
        "meta_arg_of_pericenter": 288.8355,
        "meta_mean_anomaly": 66.9363,
        "meta_ephemeris_type": 0,
        "meta_classification_type": "U",
        "meta_norad_cat_id": 33924,
        "meta_element_set_no": 999,
        "meta_rev_at_epoch": 82866,
        "meta_bstar": 0.00046627428,
        "meta_mean_motion_dot": 4.7e-06,
        "meta_mean_motion_ddot": 0,
        "tle_line1": "1 33924U 93036ED  25356.16825132  .00000470  00000+0  46627-3 0  9999",
        "tle_line2": "2 33924  73.9133 255.0460 0403860 288.8355  66.9363 13.50236718828660"
      },
      "geometry": {
        "type": "Point",
        "coordinates": [
          57.46152609491197,
          44.489937237610576
        ]
      }
    },
    {
      "type": "Feature",
      "properties": {
        "norad_id": 33928,
        "name": "COSMOS 2251 DEB",
        "group": "cosmos-2251-debris",
        "lat": -12.057921671944754,
        "lon": 29.973320696002574,
        "alt_km": 697.2741366262708,
        "timestamp": "2025-12-22T20:43:46.241219+00:00",
        "meta_object_name": "COSMOS 2251 DEB",
        "meta_object_id": "1993-036EH",
        "meta_epoch": "2025-12-21T19:54:17.960256",
        "meta_mean_motion": 14.47419923,
        "meta_eccentricity": 0.0061901,
        "meta_inclination": 73.9254,
        "meta_ra_of_asc_node": 35.4513,
        "meta_arg_of_pericenter": 327.7005,
        "meta_mean_anomaly": 32.0369,
        "meta_ephemeris_type": 0,
        "meta_classification_type": "U",
        "meta_norad_cat_id": 33928,
        "meta_element_set_no": 999,
        "meta_rev_at_epoch": 88776,
        "meta_bstar": 0.00020013352,
        "meta_mean_motion_dot": 7.22e-06,
        "meta_mean_motion_ddot": 0,
        "tle_line1": "1 33928U 93036EH  25355.82937454  .00000722  00000+0  20013-3 0  9997",
        "tle_line2": "2 33928  73.9254  35.4513 0061901 327.7005  32.0369 14.47419923887762"
      },
      "geometry": {
        "type": "Point",
        "coordinates": [
          29.973320696002574,
          -12.057921671944754
        ]
      }
    },
    {
      "type": "Feature",
      "properties": {
        "norad_id": 33932,
        "name": "COSMOS 2251 DEB",
        "group": "cosmos-2251-debris",
        "lat": 9.438349948790252,
        "lon": 114.51759427224025,
        "alt_km": 787.6934834393123,
        "timestamp": "2025-12-22T20:43:46.241229+00:00",
        "meta_object_name": "COSMOS 2251 DEB",
        "meta_object_id": "1993-036EM",
        "meta_epoch": "2025-12-22T06:35:34.167264",
        "meta_mean_motion": 14.38784734,
        "meta_eccentricity": 0.00358053,
        "meta_inclination": 74.0343,
        "meta_ra_of_asc_node": 298.3313,
        "meta_arg_of_pericenter": 12.1945,
        "meta_mean_anomaly": 348.0068,
        "meta_ephemeris_type": 0,
        "meta_classification_type": "U",
        "meta_norad_cat_id": 33932,
        "meta_element_set_no": 999,
        "meta_rev_at_epoch": 88135,
        "meta_bstar": 0.00043503306,
        "meta_mean_motion_dot": 1.321e-05,
        "meta_mean_motion_ddot": 0,
        "tle_line1": "1 33932U 93036EM  25356.27470101  .00001321  00000+0  43503-3 0  9998",
        "tle_line2": "2 33932  74.0343 298.3313 0035805  12.1945 348.0068 14.38784734881358"
      },
      "geometry": {
        "type": "Point",
        "coordinates": [
          114.51759427224025,
          9.438349948790252
        ]
      }
    },
    {
      "type": "Feature",
      "properties": {
        "norad_id": 33933,
        "name": "COSMOS 2251 DEB",
        "group": "cosmos-2251-debris",
        "lat": -6.516094005529807,
        "lon": -136.44732709960735,
        "alt_km": 821.9642962980988,
        "timestamp": "2025-12-22T20:43:46.241240+00:00",
        "meta_object_name": "COSMOS 2251 DEB",
        "meta_object_id": "1993-036EN",
        "meta_epoch": "2025-12-22T03:07:04.598112",
        "meta_mean_motion": 14.33502685,
        "meta_eccentricity": 0.00709368,
        "meta_inclination": 74.089,
        "meta_ra_of_asc_node": 43.0225,
        "meta_arg_of_pericenter": 48.6257,
        "meta_mean_anomaly": 312.0964,
        "meta_ephemeris_type": 0,
        "meta_classification_type": "U",
        "meta_norad_cat_id": 33933,
        "meta_element_set_no": 999,
        "meta_rev_at_epoch": 87919,
        "meta_bstar": 0.00024125586,
        "meta_mean_motion_dot": 6.61e-06,
        "meta_mean_motion_ddot": 0,
        "tle_line1": "1 33933U 93036EN  25356.12991433  .00000661  00000+0  24126-3 0  9995",
        "tle_line2": "2 33933  74.0890  43.0225 0070936  48.6257 312.0964 14.33502685879190"
      },
      "geometry": {
        "type": "Point",
        "coordinates": [
          -136.44732709960735,
          -6.516094005529807
        ]
      }
    },
    {
      "type": "Feature",
      "properties": {
        "norad_id": 33934,
        "name": "COSMOS 2251 DEB",
        "group": "cosmos-2251-debris",
        "lat": 22.218691635517615,
        "lon": -105.4311393805629,
        "alt_km": 687.9430451113194,
        "timestamp": "2025-12-22T20:43:46.241250+00:00",
        "meta_object_name": "COSMOS 2251 DEB",
        "meta_object_id": "1993-036EP",
        "meta_epoch": "2025-12-22T06:50:57.393600",
        "meta_mean_motion": 14.59182418,
        "meta_eccentricity": 0.00152668,
        "meta_inclination": 74.0382,
        "meta_ra_of_asc_node": 82.3842,
        "meta_arg_of_pericenter": 206.0728,
        "meta_mean_anomaly": 153.967,
        "meta_ephemeris_type": 0,
        "meta_classification_type": "U",
        "meta_norad_cat_id": 33934,
        "meta_element_set_no": 999,
        "meta_rev_at_epoch": 88878,
        "meta_bstar": 0.00084235612,
        "meta_mean_motion_dot": 3.95e-05,
        "meta_mean_motion_ddot": 0,
        "tle_line1": "1 33934U 93036EP  25356.28538650  .00003950  00000+0  84236-3 0  9993",
        "tle_line2": "2 33934  74.0382  82.3842 0015266 206.0728 153.9670 14.59182418888783"
      },
      "geometry": {
        "type": "Point",
        "coordinates": [
          -105.4311393805629,
          22.218691635517615
        ]
      }
    },
    {
      "type": "Feature",
      "properties": {
        "norad_id": 33936,
        "name": "COSMOS 2251 DEB",
        "group": "cosmos-2251-debris",
        "lat": 50.44327058074686,
        "lon": 177.8316240692502,
        "alt_km": 673.5651600239389,
        "timestamp": "2025-12-22T20:43:46.241260+00:00",
        "meta_object_name": "COSMOS 2251 DEB",
        "meta_object_id": "1993-036ER",
        "meta_epoch": "2025-12-22T11:55:49.113408",
        "meta_mean_motion": 14.60327001,
        "meta_eccentricity": 0.00268824,
        "meta_inclination": 74.0177,
        "meta_ra_of_asc_node": 18.8344,
        "meta_arg_of_pericenter": 171.9613,
        "meta_mean_anomaly": 188.199,
        "meta_ephemeris_type": 0,
        "meta_classification_type": "U",
        "meta_norad_cat_id": 33936,
        "meta_element_set_no": 999,
        "meta_rev_at_epoch": 89032,
        "meta_bstar": 0.00062408883,
        "meta_mean_motion_dot": 3.003e-05,
        "meta_mean_motion_ddot": 0,
        "tle_line1": "1 33936U 93036ER  25356.49709622  .00003003  00000+0  62409-3 0  9994",
        "tle_line2": "2 33936  74.0177  18.8344 0026882 171.9613 188.1990 14.60327001890326"
      },
      "geometry": {
        "type": "Point",
        "coordinates": [
          177.8316240692502,
          50.44327058074686
        ]
      }
    },
    {
      "type": "Feature",
      "properties": {
        "norad_id": 33938,
        "name": "COSMOS 2251 DEB",
        "group": "cosmos-2251-debris",
        "lat": -27.81307489393233,
        "lon": 16.95508465448961,
        "alt_km": 735.6066487238731,
        "timestamp": "2025-12-22T20:43:46.241269+00:00",
        "meta_object_name": "COSMOS 2251 DEB",
        "meta_object_id": "1993-036ET",
        "meta_epoch": "2025-12-22T13:13:29.474112",
        "meta_mean_motion": 14.46821261,
        "meta_eccentricity": 0.00168016,
        "meta_inclination": 74.0437,
        "meta_ra_of_asc_node": 188.8579,
        "meta_arg_of_pericenter": 270.1897,
        "meta_mean_anomaly": 110.8812,
        "meta_ephemeris_type": 0,
        "meta_classification_type": "U",
        "meta_norad_cat_id": 33938,
        "meta_element_set_no": 999,
        "meta_rev_at_epoch": 88542,
        "meta_bstar": 0.00036349548,
        "meta_mean_motion_dot": 1.292e-05,
        "meta_mean_motion_ddot": 0,
        "tle_line1": "1 33938U 93036ET  25356.55103558  .00001292  00000+0  36350-3 0  9993",
        "tle_line2": "2 33938  74.0437 188.8579 0016801 270.1897 110.8812 14.46821261885422"
      },
      "geometry": {
        "type": "Point",
        "coordinates": [
          16.95508465448961,
          -27.81307489393233
        ]
      }
    }
  ]
}